STARLINK-30716          
1 57936U 23148B   26068.26184277 -.00000498  00000+0 -46818-5 0  9991
2 57936  53.1622  26.4173 0001251 100.2139 259.9003 15.30191740138358
KUIPER-00226            
1 67785U 26030X   26068.62629313  .00046834  00000+0  15530-2 0  9998
2 67785  51.8814 220.1252 0017713  64.2781 296.0030 15.30655594  5078
